{
  "links" : {
    "next" : "https://api.nasa.gov/neo/rest/v1/feed?start_date=2014-08-09&end_date=2014-08-09&detailed=true&api_key=t0TVs3DtDT2H8Oy2Zy8m2eVrNsAVKAexjcZXUckd",
    "prev" : "https://api.nasa.gov/neo/rest/v1/feed?start_date=2014-08-07&end_date=2014-08-07&detailed=true&api_key=t0TVs3DtDT2H8Oy2Zy8m2eVrNsAVKAexjcZXUckd",
    "self" : "https://api.nasa.gov/neo/rest/v1/feed?start_date=2014-08-08&end_date=2014-08-08&detailed=true&api_key=t0TVs3DtDT2H8Oy2Zy8m2eVrNsAVKAexjcZXUckd"
  },
  "element_count" : 9,
  "near_earth_objects" : {
    "2014-08-08" : [ {
      "links" : {
        "self" : "https://api.nasa.gov/neo/rest/v1/neo/2420286?api_key=t0TVs3DtDT2H8Oy2Zy8m2eVrNsAVKAexjcZXUckd"
      },
      "neo_reference_id" : "2420286",
      "name" : "420286 (2011 RZ)",
      "nasa_jpl_url" : "http://ssd.jpl.nasa.gov/sbdb.cgi?sstr=2420286",
      "absolute_magnitude_h" : 18.8,
      "estimated_diameter" : {
        "kilometers" : {
          "estimated_diameter_min" : 0.4619074603,
          "estimated_diameter_max" : 1.0328564805
        },
        "meters" : {
          "estimated_diameter_min" : 461.9074602816,
          "estimated_diameter_max" : 1032.8564805039
        },
        "miles" : {
          "estimated_diameter_min" : 0.2870159005,
          "estimated_diameter_max" : 0.6417870641
        },
        "feet" : {
          "estimated_diameter_min" : 1515.4444719902,
          "estimated_diameter_max" : 3388.6368554964
        }
      },
      "is_potentially_hazardous_asteroid" : false,
      "close_approach_data" : [ {
        "close_approach_date" : "2014-08-08",
        "epoch_date_close_approach" : 1407481200000,
        "relative_velocity" : {
          "kilometers_per_second" : "18.6302276557",
          "kilometers_per_hour" : "67068.8195606773",
          "miles_per_hour" : "41673.9562431331"
        },
        "miss_distance" : {
          "astronomical" : "0.4073221043",
          "lunar" : "158.4483032227",
          "kilometers" : "60934520",
          "miles" : "37862956"
        },
        "orbiting_body" : "Earth"
      } ],
      "orbital_data" : {
        "orbit_id" : "45",
        "orbit_determination_date" : "2017-04-06 09:21:09",
        "orbit_uncertainty" : "0",
        "minimum_orbit_intersection" : ".301821",
        "jupiter_tisserand_invariant" : "3.310",
        "epoch_osculation" : "2458000.5",
        "eccentricity" : ".5328754589585732",
        "semi_major_axis" : "2.132095921304537",
        "inclination" : "36.58268997490882",
        "ascending_node_longitude" : "332.1085892341126",
        "orbital_period" : "1137.125859305466",
        "perihelion_distance" : ".9959543286956798",
        "perihelion_argument" : "278.375553993747",
        "aphelion_distance" : "3.268237513913394",
        "perihelion_time" : "2457938.884529102691",
        "mean_anomaly" : "19.50669694257011",
        "mean_motion" : ".3165876468765568",
        "equinox" : "J2000"
      }
    }, {
      "links" : {
        "self" : "https://api.nasa.gov/neo/rest/v1/neo/3054373?api_key=t0TVs3DtDT2H8Oy2Zy8m2eVrNsAVKAexjcZXUckd"
      },
      "neo_reference_id" : "3054373",
      "name" : "(2000 UK11)",
      "nasa_jpl_url" : "http://ssd.jpl.nasa.gov/sbdb.cgi?sstr=3054373",
      "absolute_magnitude_h" : 25.3,
      "estimated_diameter" : {
        "kilometers" : {
          "estimated_diameter_min" : 0.0231502122,
          "estimated_diameter_max" : 0.0517654482
        },
        "meters" : {
          "estimated_diameter_min" : 23.150212221,
          "estimated_diameter_max" : 51.7654482198
        },
        "miles" : {
          "estimated_diameter_min" : 0.0143848705,
          "estimated_diameter_max" : 0.0321655483
        },
        "feet" : {
          "estimated_diameter_min" : 75.9521422633,
          "estimated_diameter_max" : 169.8341531374
        }
      },
      "is_potentially_hazardous_asteroid" : false,
      "close_approach_data" : [ {
        "close_approach_date" : "2014-08-08",
        "epoch_date_close_approach" : 1407481200000,
        "relative_velocity" : {
          "kilometers_per_second" : "17.0539536922",
          "kilometers_per_hour" : "61394.2332920186",
          "miles_per_hour" : "38147.9890141435"
        },
        "miss_distance" : {
          "astronomical" : "0.3488029649",
          "lunar" : "135.6843566895",
          "kilometers" : "52180180",
          "miles" : "32423260"
        },
        "orbiting_body" : "Earth"
      } ],
      "orbital_data" : {
        "orbit_id" : "31",
        "orbit_determination_date" : "2017-04-06 09:16:45",
        "orbit_uncertainty" : "1",
        "minimum_orbit_intersection" : ".004122",
        "jupiter_tisserand_invariant" : "6.691",
        "epoch_osculation" : "2458000.5",
        "eccentricity" : ".2488283620799303",
        "semi_major_axis" : ".882978518303249",
        "inclination" : ".7858114946430927",
        "ascending_node_longitude" : "237.1415953519865",
        "orbital_period" : "303.0565212541895",
        "perihelion_distance" : ".6632684198420878",
        "perihelion_argument" : "293.7995553615281",
        "aphelion_distance" : "1.10268861676441",
        "perihelion_time" : "2458007.162745161736",
        "mean_anomaly" : "352.0853435250351",
        "mean_motion" : "1.187897222967359",
        "equinox" : "J2000"
      }
    }, {
      "links" : {
        "self" : "https://api.nasa.gov/neo/rest/v1/neo/3274304?api_key=t0TVs3DtDT2H8Oy2Zy8m2eVrNsAVKAexjcZXUckd"
      },
      "neo_reference_id" : "3274304",
      "name" : "(2005 EY169)",
      "nasa_jpl_url" : "http://ssd.jpl.nasa.gov/sbdb.cgi?sstr=3274304",
      "absolute_magnitude_h" : 22.2,
      "estimated_diameter" : {
        "kilometers" : {
          "estimated_diameter_min" : 0.096506147,
          "estimated_diameter_max" : 0.2157943048
        },
        "meters" : {
          "estimated_diameter_min" : 96.5061469579,
          "estimated_diameter_max" : 215.7943048444
        },
        "miles" : {
          "estimated_diameter_min" : 0.059966121,
          "estimated_diameter_max" : 0.134088323
        },
        "feet" : {
          "estimated_diameter_min" : 316.6212271853,
          "estimated_diameter_max" : 707.9865871058
        }
      },
      "is_potentially_hazardous_asteroid" : false,
      "close_approach_data" : [ {
        "close_approach_date" : "2014-08-08",
        "epoch_date_close_approach" : 1407481200000,
        "relative_velocity" : {
          "kilometers_per_second" : "10.7765488539",
          "kilometers_per_hour" : "38795.5758740641",
          "miles_per_hour" : "24106.0621313039"
        },
        "miss_distance" : {
          "astronomical" : "0.354229362",
          "lunar" : "137.7952270508",
          "kilometers" : "52991960",
          "miles" : "32927676"
        },
        "orbiting_body" : "Earth"
      } ],
      "orbital_data" : {
        "orbit_id" : "28",
        "orbit_determination_date" : "2017-07-31 11:21:30",
        "orbit_uncertainty" : "0",
        "minimum_orbit_intersection" : ".0696479",
        "jupiter_tisserand_invariant" : "4.889",
        "epoch_osculation" : "2455353.5",
        "eccentricity" : ".2330986549811902",
        "semi_major_axis" : "1.308067523980838",
        "inclination" : "20.89051623727846",
        "ascending_node_longitude" : "346.9778286309497",
        "orbital_period" : "546.4414963367311",
        "perihelion_distance" : "1.003158743516329",
        "perihelion_argument" : "227.5148042279464",
        "aphelion_distance" : "1.612976304445347",
        "perihelion_time" : "2455126.076234872161",
        "mean_anomaly" : "149.8285836542145",
        "mean_motion" : ".6588079463462981",
        "equinox" : "J2000"
      }
    } ]
  }
}